{
  "id": 1108955927,
  "type": "Feature",
  "properties": {
    "edtf:cessation": "",
    "edtf:inception": "",
    "geom:area": 0.000996912375500017,
    "geom:area_square_m": 8645023.074186,
    "geom:bbox": "-73.658430,45.450772,-73.595136,45.483883",
    "geom:latitude": 45.46757720983578,
    "geom:longitude": -73.62914712328147,
    "iso:country": "CA",
    "lbl:latitude": 45.466151,
    "lbl:longitude": -73.63058,
    "lbl:max_zoom": 15,
    "mps:latitude": 45.464062,
    "mps:longitude": -73.636576,
    "mz:hierarchy_label": 1,
    "mz:is_current": 1,
    "mz:is_funky": 0,
    "mz:is_landuse_aoi": 0,
    "mz:max_zoom": 18,
    "mz:min_zoom": 12,
    "name:eng_x_preferred": [
      "Notre-Dame-de-Grâce"
    ],
    "name:eng_x_variant": [
      "NDG"
    ],
    "name:fra_x_preferred": [
      "Notre-Dame-de-Grâce"
    ],
    "name:fra_x_variant": [
      "Notre Dame de Grâce",
      "NDG"
    ],
    "name:gle_x_preferred": [
      "Notre-Dame-de-Grâce"
    ],
    "name:heb_x_preferred": [
      "נוטרדם-דה-גראס"
    ],
    "name:ita_x_preferred": [
      "Notre-Dame-de-Grâce"
    ],
    "name:jpn_x_preferred": [
      "ノートル＝ダム＝ド＝グラース"
    ],
    "name:mlg_x_preferred": [
      "Notre-Dame-de-Grâce"
    ],
    "name:spa_x_preferred": [
      "Notre-Dame-de-Grâce"
    ],
    "reversegeo:latitude": 45.464062,
    "reversegeo:longitude": -73.636576,
    "src:geom": "mz",
    "wof:belongsto": [
      136251273,
      102191575,
      85633041,
      101736545,
      1108955757,
      890458661
    ],
    "wof:breaches": [],
    "wof:concordances": {
      "wd:id": "Q3344587"
    },
    "wof:country": "CA",
    "wof:created": 1786322749,
    "wof:geomhash": "8c00462c9646fc04bd0ea2e5e987b20f",
    "wof:hierarchy": [
      {
        "borough_id": 1108955757,
        "continent_id": 102191575,
        "country_id": 85633041,
        "county_id": 890458661,
        "locality_id": 101736545,
        "macrohood_id": 1108955927,
        "region_id": 136251273
      }
    ],
    "wof:id": 1108955927,
    "wof:lastmodified": 1786322749,
    "wof:name": "Notre-Dame-de-Grace",
    "wof:parent_id": 1108955757,
    "wof:placetype": "macrohood",
    "wof:repo": "whosonfirst-data-admin-ca",
    "wof:superseded_by": [],
    "wof:supersedes": [
      85871117
    ],
    "wof:tags": []
  },
  "bbox": [
    -73.65843,
    45.450772,
    -73.595136,
    45.483883
  ],
  "geometry": {"type":"MultiPolygon","coordinates":[[[[-73.613097,45.480015],[-73.612148,45.479589],[-73.609063,45.478205],[-73.605943,45.476818],[-73.605435,45.476593],[-73.605023,45.477008],[-73.603015,45.476109],[-73.600546,45.475002],[-73.599566,45.474546],[-73.598547,45.474071],[-73.596383,45.475593],[-73.595778,45.476018],[-73.595766,45.476025],[-73.595569,45.476143],[-73.595505,45.476188],[-73.595136,45.476445],[-73.59646,45.473418],[-73.597928,45.47259],[-73.597992,45.472567],[-73.598919,45.472068],[-73.599089,45.471882],[-73.599376,45.47173],[-73.599609,45.47153],[-73.601124,45.470175],[-73.601815,45.469644],[-73.602607,45.469055],[-73.602768,45.469071],[-73.603169,45.469104],[-73.604228,45.468486],[-73.605246,45.467847],[-73.605628,45.467604],[-73.605846,45.467288],[-73.606607,45.467055],[-73.607213,45.466668],[-73.607417,45.466596],[-73.608266,45.466289],[-73.611606,45.464774],[-73.611816,45.464918],[-73.612063,45.464859],[-73.61208,45.464866],[-73.612118,45.464887],[-73.615179,45.463519],[-73.616514,45.462942],[-73.617583,45.462505],[-73.618228,45.462231],[-73.619774,45.461681],[-73.619961,45.461751],[-73.621772,45.460464],[-73.623012,45.459589],[-73.624309,45.458666],[-73.626139,45.457544],[-73.626145,45.457539],[-73.62854,45.45541],[-73.628553,45.455327],[-73.628751,45.45515],[-73.631482,45.452748],[-73.632797,45.452059],[-73.634404,45.451229],[-73.635305,45.450772],[-73.636235,45.451136],[-73.637662,45.451684],[-73.641244,45.45307],[-73.642602,45.453594],[-73.65562,45.458621],[-73.657988,45.459535],[-73.658035,45.459554],[-73.65843,45.45971],[-73.658339,45.459817],[-73.65815,45.459748],[-73.657829,45.459674],[-73.657577,45.459702],[-73.657496,45.45997],[-73.657174,45.460108],[-73.657243,45.46021],[-73.657221,45.460409],[-73.657543,45.460544],[-73.65765,45.460606],[-73.657714,45.460809],[-73.657546,45.460988],[-73.65764,45.461117],[-73.657692,45.461204],[-73.65769,45.461264],[-73.65819,45.461457],[-73.655674,45.462922],[-73.655534,45.462949],[-73.655542,45.462995],[-73.653175,45.466258],[-73.653246,45.466286],[-73.653013,45.466595],[-73.652363,45.467456],[-73.652297,45.467544],[-73.652131,45.46769],[-73.650757,45.468475],[-73.650739,45.468485],[-73.650429,45.468669],[-73.650277,45.468806],[-73.649851,45.46962],[-73.649395,45.470379],[-73.649312,45.470348],[-73.648993,45.470602],[-73.648384,45.471086],[-73.648136,45.471284],[-73.647741,45.471598],[-73.647087,45.472118],[-73.646957,45.47222],[-73.64611,45.472894],[-73.645779,45.473163],[-73.645692,45.473235],[-73.644623,45.473702],[-73.644168,45.473901],[-73.644172,45.473902],[-73.643521,45.474191],[-73.643093,45.47448],[-73.642159,45.475119],[-73.642145,45.475128],[-73.642146,45.475129],[-73.63978,45.476706],[-73.639424,45.476818],[-73.639396,45.476815],[-73.639174,45.47679],[-73.636472,45.47686],[-73.635488,45.476896],[-73.632462,45.477882],[-73.630211,45.478283],[-73.62958,45.478401],[-73.629572,45.478397],[-73.629561,45.478393],[-73.629368,45.478334],[-73.628758,45.478426],[-73.627531,45.478683],[-73.626541,45.47889],[-73.625192,45.479119],[-73.624501,45.479281],[-73.623522,45.479838],[-73.622871,45.480591],[-73.622566,45.48091],[-73.621951,45.481541],[-73.620455,45.482608],[-73.619523,45.483213],[-73.618812,45.483455],[-73.618061,45.483519],[-73.616763,45.483397],[-73.616008,45.483481],[-73.615028,45.483883],[-73.614535,45.483663],[-73.612401,45.482689],[-73.614381,45.48059],[-73.613097,45.480015]]]]}
}
